start=new Date('2023-05-31T00:00:00.000Z').valueOf();
sats=[{"MEAN_ELEMENT_THEORY":"SGP4","BSTAR":"-0.02983100000000","SITE":"AFWTR","CLASSIFICATION_TYPE":"U","LAUNCH_DATE":"2023-04-27","RCS_SIZE":"LARGE","ECCENTRICITY":"0.00018710","DECAY_DATE":null,"PERIOD":"93.907","RA_OF_ASC_NODE":"151.8832","TLE_LINE2":"2 56351  97.6543 151.8832 0001871  88.9115  80.1111 15.33428612  1304","GP_ID":"232857916","ELEMENT_SET_NO":"999","PERIAPSIS":"464.313","REF_FRAME":"TEME","MEAN_ANOMALY":"80.1111","SEMIMAJOR_AXIS":"6843.729","MEAN_MOTION_DDOT":"0.0000000000000","OBJECT_ID":"2023-058AL","FILE":"3921192","COUNTRY_CODE":"US","MEAN_MOTION_DOT":"-0.00885536","CENTER_NAME":"EARTH","TLE_LINE1":"1 56351U 23058AL  23150.91667824 -.00885536  00000-0 -29831-1 0  9993","OBJECT_NAME":"STARLINK-5891","EPOCH":"2023-05-30T22:00:00.999936","NORAD_CAT_ID":"56351","APOAPSIS":"466.874","ARG_OF_PERICENTER":"88.9115","REV_AT_EPOCH":"130","EPHEMERIS_TYPE":"0","TIME_SYSTEM":"UTC","INCLINATION":"97.6543","MEAN_MOTION":"15.33428612","OBJECT_TYPE":"PAYLOAD"},{"RCS_SIZE":"LARGE","LAUNCH_DATE":"2023-04-27","ECCENTRICITY":"0.00018680","MEAN_ELEMENT_THEORY":"SGP4","CLASSIFICATION_TYPE":"U","SITE":"AFWTR","BSTAR":"-0.03016000000000","ELEMENT_SET_NO":"999","SEMIMAJOR_AXIS":"6844.742","MEAN_ANOMALY":"72.0338","REF_FRAME":"TEME","PERIAPSIS":"465.328","DECAY_DATE":null,"PERIOD":"93.928","GP_ID":"232857728","TLE_LINE2":"2 56352  97.6543 151.8783 0001868  85.9485  72.0338 15.33088323  1305","RA_OF_ASC_NODE":"151.8783","EPOCH":"2023-05-30T22:00:00.999936","OBJECT_NAME":"STARLINK-5885","TLE_LINE1":"1 56352U 23058AM  23150.91667824 -.00885712  00000-0 -30160-1 0  9997","NORAD_CAT_ID":"56352","COUNTRY_CODE":"US","FILE":"3921192","OBJECT_ID":"2023-058AM","MEAN_MOTION_DDOT":"0.0000000000000","CENTER_NAME":"EARTH","MEAN_MOTION_DOT":"-0.00885712","TIME_SYSTEM":"UTC","MEAN_MOTION":"15.33088323","OBJECT_TYPE":"PAYLOAD","INCLINATION":"97.6543","APOAPSIS":"467.885","EPHEMERIS_TYPE":"0","REV_AT_EPOCH":"130","ARG_OF_PERICENTER":"85.9485"},{"INCLINATION":"97.6543","MEAN_MOTION":"15.34203570","OBJECT_TYPE":"PAYLOAD","TIME_SYSTEM":"UTC","ARG_OF_PERICENTER":"90.6279","REV_AT_EPOCH":"551","EPHEMERIS_TYPE":"0","APOAPSIS":"464.547","NORAD_CAT_ID":"56353","TLE_LINE1":"1 56353U 23058AN  23150.91667824 -.00884103  00000-0 -29056-1 0  9993","OBJECT_NAME":"STARLINK-5874","EPOCH":"2023-05-30T22:00:00.999936","MEAN_MOTION_DOT":"-0.00884103","CENTER_NAME":"EARTH","MEAN_MOTION_DDOT":"0.0000000000000","OBJECT_ID":"2023-058AN","FILE":"3921090","COUNTRY_CODE":"US","PERIAPSIS":"462.031","REF_FRAME":"TEME","MEAN_ANOMALY":"102.6974","SEMIMAJOR_AXIS":"6841.424","ELEMENT_SET_NO":"999","RA_OF_ASC_NODE":"151.8939","TLE_LINE2":"2 56353  97.6543 151.8939 0001839  90.6279 102.6974 15.34203570  5518","GP_ID":"232829157","DECAY_DATE":null,"PERIOD":"93.860","ECCENTRICITY":"0.00018390","LAUNCH_DATE":"2023-04-27","RCS_SIZE":"LARGE","BSTAR":"-0.02905600000000","SITE":"AFWTR","CLASSIFICATION_TYPE":"U","MEAN_ELEMENT_THEORY":"SGP4"},{"MEAN_MOTION_DDOT":"0.0000000000000","OBJECT_ID":"2023-058AP","FILE":"3921192","COUNTRY_CODE":"US","MEAN_MOTION_DOT":"-0.00884263","CENTER_NAME":"EARTH","TLE_LINE1":"1 56354U 23058AP  23150.91667824 -.00884263  00000-0 -29914-1 0  9994","OBJECT_NAME":"STARLINK-5877","EPOCH":"2023-05-30T22:00:00.999936","NORAD_CAT_ID":"56354","APOAPSIS":"467.274","ARG_OF_PERICENTER":"83.6758","EPHEMERIS_TYPE":"0","REV_AT_EPOCH":"130","TIME_SYSTEM":"UTC","INCLINATION":"97.6543","OBJECT_TYPE":"PAYLOAD","MEAN_MOTION":"15.33291467","MEAN_ELEMENT_THEORY":"SGP4","BSTAR":"-0.02991400000000","SITE":"AFWTR","CLASSIFICATION_TYPE":"U","LAUNCH_DATE":"2023-04-27","RCS_SIZE":"LARGE","ECCENTRICITY":"0.00018590","DECAY_DATE":null,"PERIOD":"93.916","RA_OF_ASC_NODE":"151.8811","TLE_LINE2":"2 56354  97.6543 151.8811 0001859  83.6758  80.7191 15.33291467  1305","GP_ID":"232857539","ELEMENT_SET_NO":"999","PERIAPSIS":"464.730","REF_FRAME":"TEME","MEAN_ANOMALY":"80.7191","SEMIMAJOR_AXIS":"6844.137"},{"MEAN_ELEMENT_THEORY":"SGP4","BSTAR":"-0.02947800000000","SITE":"AFWTR","CLASSIFICATION_TYPE":"U","LAUNCH_DATE":"2023-04-27","RCS_SIZE":"LARGE","ECCENTRICITY":"0.00018520","DECAY_DATE":null,"PERIOD":"93.887","RA_OF_ASC_NODE":"151.8880","TLE_LINE2":"2 56355  97.6543 151.8880 0001852  86.1654  93.5713 15.33763605  1308","GP_ID":"232857665","ELEMENT_SET_NO":"999","REF_FRAME":"TEME","PERIAPSIS":"463.330","MEAN_ANOMALY":"93.5713","SEMIMAJOR_AXIS":"6842.732","MEAN_MOTION_DDOT":"0.0000000000000","OBJECT_ID":"2023-058AQ","FILE":"3921192","COUNTRY_CODE":"US","MEAN_MOTION_DOT":"-0.00884475","CENTER_NAME":"EARTH","OBJECT_NAME":"STARLINK-5533","TLE_LINE1":"1 56355U 23058AQ  23150.91667824 -.00884475  00000-0 -29478-1 0  9995","EPOCH":"2023-05-30T22:00:00.999936","NORAD_CAT_ID":"56355","APOAPSIS":"465.865","ARG_OF_PERICENTER":"86.1654","EPHEMERIS_TYPE":"0","REV_AT_EPOCH":"130","TIME_SYSTEM":"UTC","INCLINATION":"97.6543","OBJECT_TYPE":"PAYLOAD","MEAN_MOTION":"15.33763605"},{"LAUNCH_DATE":"2023-04-27","RCS_SIZE":"LARGE","ECCENTRICITY":"0.00018790","MEAN_ELEMENT_THEORY":"SGP4","SITE":"AFWTR","CLASSIFICATION_TYPE":"U","BSTAR":"-0.02965900000000","ELEMENT_SET_NO":"999","MEAN_ANOMALY":"88.1948","SEMIMAJOR_AXIS":"6843.116","REF_FRAME":"TEME","PERIAPSIS":"463.695","DECAY_DATE":null,"PERIOD":"93.895","GP_ID":"232827960","RA_OF_ASC_NODE":"151.8861","TLE_LINE2":"2 56356  97.6543 151.8861 0001879  87.1457  88.1948 15.33634572  5516","EPOCH":"2023-05-30T22:00:00.999936","OBJECT_NAME":"STARLINK-5535","TLE_LINE1":"1 56356U 23058AR  23150.91667824 -.00886139  00000-0 -29659-1 0  9996","NORAD_CAT_ID":"56356","FILE":"3921043","COUNTRY_CODE":"US","MEAN_MOTION_DDOT":"0.0000000000000","OBJECT_ID":"2023-058AR","CENTER_NAME":"EARTH","MEAN_MOTION_DOT":"-0.00886139","TIME_SYSTEM":"UTC","MEAN_MOTION":"15.33634572","OBJECT_TYPE":"PAYLOAD","INCLINATION":"97.6543","APOAPSIS":"466.267","EPHEMERIS_TYPE":"0","REV_AT_EPOCH":"551","ARG_OF_PERICENTER":"87.1457"},{"APOAPSIS":"465.974","ARG_OF_PERICENTER":"83.7944","REV_AT_EPOCH":"130","EPHEMERIS_TYPE":"0","TIME_SYSTEM":"UTC","INCLINATION":"97.6543","MEAN_MOTION":"15.33727016","OBJECT_TYPE":"PAYLOAD","OBJECT_ID":"2023-058AS","MEAN_MOTION_DDOT":"0.0000000000000","COUNTRY_CODE":"US","FILE":"3921192","MEAN_MOTION_DOT":"-0.00883336","CENTER_NAME":"EARTH","TLE_LINE1":"1 56357U 23058AS  23150.91667824 -.00883336  00000-0 -29471-1 0  9995","OBJECT_NAME":"STARLINK-5538","EPOCH":"2023-05-30T22:00:00.999936","NORAD_CAT_ID":"56357","DECAY_DATE":null,"PERIOD":"93.889","TLE_LINE2":"2 56357  97.6543 151.8874 0001853  83.7944  94.4704 15.33727016  1305","RA_OF_ASC_NODE":"151.8874","GP_ID":"232857854","ELEMENT_SET_NO":"999","PERIAPSIS":"463.438","REF_FRAME":"TEME","SEMIMAJOR_AXIS":"6842.841","MEAN_ANOMALY":"94.4704","MEAN_ELEMENT_THEORY":"SGP4","BSTAR":"-0.02947100000000","CLASSIFICATION_TYPE":"U","SITE":"AFWTR","RCS_SIZE":"LARGE","LAUNCH_DATE":"2023-04-27","ECCENTRICITY":"0.00018530"},{"CENTER_NAME":"EARTH","MEAN_MOTION_DOT":"-0.00884377","COUNTRY_CODE":"US","FILE":"3921043","OBJECT_ID":"2023-058AT","MEAN_MOTION_DDOT":"0.0000000000000","NORAD_CAT_ID":"56358","EPOCH":"2023-05-30T22:00:00.999936","TLE_LINE1":"1 56358U 23058AT  23150.91667824 -.00884377  00000-0 -29696-1 0  9991","OBJECT_NAME":"STARLINK-5482","EPHEMERIS_TYPE":"0","REV_AT_EPOCH":"551","ARG_OF_PERICENTER":"85.7128","APOAPSIS":"466.574","MEAN_MOTION":"15.33527138","OBJECT_TYPE":"PAYLOAD","INCLINATION":"97.6543","TIME_SYSTEM":"UTC","CLASSIFICATION_TYPE":"U","SITE":"AFWTR","BSTAR":"-0.02969600000000","MEAN_ELEMENT_THEORY":"SGP4","ECCENTRICITY":"0.00018600","RCS_SIZE":"LARGE","LAUNCH_DATE":"2023-04-27","GP_ID":"232827959","TLE_LINE2":"2 56358  97.6543 151.8846 0001860  85.7128  86.3939 15.33527138  5519","RA_OF_ASC_NODE":"151.8846","DECAY_DATE":null,"PERIOD":"93.901","SEMIMAJOR_AXIS":"6843.436","MEAN_ANOMALY":"86.3939","PERIAPSIS":"464.028","REF_FRAME":"TEME","ELEMENT_SET_NO":"999"},{"NORAD_CAT_ID":"56359","OBJECT_NAME":"STARLINK-5551","TLE_LINE1":"1 56359U 23058AU  23150.91667824 -.00884472  00000-0 -29299-1 0  9997","EPOCH":"2023-05-30T22:00:00.999936","MEAN_MOTION_DOT":"-0.00884472","CENTER_NAME":"EARTH","OBJECT_ID":"2023-058AU","MEAN_MOTION_DDOT":"0.0000000000000","COUNTRY_CODE":"US","FILE":"3921192","INCLINATION":"97.6543","OBJECT_TYPE":"PAYLOAD","MEAN_MOTION":"15.33955550","TIME_SYSTEM":"UTC","ARG_OF_PERICENTER":"92.3160","REV_AT_EPOCH":"130","EPHEMERIS_TYPE":"0","APOAPSIS":"465.292","ECCENTRICITY":"0.00018500","RCS_SIZE":"LARGE","LAUNCH_DATE":"2023-04-27","BSTAR":"-0.02929900000000","CLASSIFICATION_TYPE":"U","SITE":"AFWTR","MEAN_ELEMENT_THEORY":"SGP4","PERIAPSIS":"462.761","REF_FRAME":"TEME","SEMIMAJOR_AXIS":"6842.162","MEAN_ANOMALY":"93.2831","ELEMENT_SET_NO":"999","TLE_LINE2":"2 56359  97.6543 151.8906 0001850  92.3160  93.2831 15.33955550  1300","RA_OF_ASC_NODE":"151.8906","GP_ID":"232857917","DECAY_DATE":null,"PERIOD":"93.875"},{"ELEMENT_SET_NO":"999","SEMIMAJOR_AXIS":"6842.437","MEAN_ANOMALY":"97.3319","PERIAPSIS":"463.034","REF_FRAME":"TEME","PERIOD":"93.881","DECAY_DATE":null,"GP_ID":"232857729","TLE_LINE2":"2 56360  97.6544 151.8893 0001852  85.4385  97.3319 15.33863094  1309","RA_OF_ASC_NODE":"151.8893","RCS_SIZE":"LARGE","LAUNCH_DATE":"2023-04-27","ECCENTRICITY":"0.00018520","MEAN_ELEMENT_THEORY":"SGP4","CLASSIFICATION_TYPE":"U","SITE":"AFWTR","BSTAR":"-0.02936600000000","TIME_SYSTEM":"UTC","MEAN_MOTION":"15.33863094","OBJECT_TYPE":"PAYLOAD","INCLINATION":"97.6544","APOAPSIS":"465.569","REV_AT_EPOCH":"130","EPHEMERIS_TYPE":"0","ARG_OF_PERICENTER":"85.4385","EPOCH":"2023-05-30T22:00:00.999936","OBJECT_NAME":"STARLINK-5549","TLE_LINE1":"1 56360U 23058AV  23150.91667824 -.00883943  00000-0 -29366-1 0  9996","NORAD_CAT_ID":"56360","COUNTRY_CODE":"US","FILE":"3921192","OBJECT_ID":"2023-058AV","MEAN_MOTION_DDOT":"0.0000000000000","CENTER_NAME":"EARTH","MEAN_MOTION_DOT":"-0.00883943"}];
